{
    "links": {
        "self": "http://www.neowsapp.com/rest/v1/neo/3696445?api_key=iIulBulltgU6a56xZRHN4H3l9WmuAYTsLGpBGhQ2"
    },
    "id": "3696445",
    "neo_reference_id": "3696445",
    "name": "(2014 WH7)",
    "designation": "2014 WH7",
    "nasa_jpl_url": "http://ssd.jpl.nasa.gov/sbdb.cgi?sstr=3696445",
    "absolute_magnitude_h": 22.7,
    "estimated_diameter": {
        "kilometers": {
            "estimated_diameter_min": 0.0766575574,
            "estimated_diameter_max": 0.1714115092
        },
        "meters": {
            "estimated_diameter_min": 76.6575573531,
            "estimated_diameter_max": 171.4115092306
        },
        "miles": {
            "estimated_diameter_min": 0.0476327831,
            "estimated_diameter_max": 0.1065101409
        },
        "feet": {
            "estimated_diameter_min": 251.5011804664,
            "estimated_diameter_max": 562.3737359442
        }
    },
    "is_potentially_hazardous_asteroid": false,
    "close_approach_data": [
        {
            "close_approach_date": "2014-11-24",
            "close_approach_date_full": "2014-Nov-24 00:11",
            "epoch_date_close_approach": 1416787860000,
            "relative_velocity": {
                "kilometers_per_second": "3.9815031528",
                "kilometers_per_hour": "14333.4113500023",
                "miles_per_hour": "8906.2244024501"
            },
            "miss_distance": {
                "astronomical": "0.2516362631",
                "lunar": "97.8865063459",
                "kilometers": "37644248.974519597",
                "miles": "23391051.6552885586"
            },
            "orbiting_body": "Earth"
        }
    ],
    "orbital_data": {
        "orbit_id": "8",
        "orbit_determination_date": "2017-04-06 08:37:25",
        "first_observation_date": "2014-11-17",
        "last_observation_date": "2014-12-12",
        "data_arc_in_days": 25,
        "observations_used": 40,
        "orbit_uncertainty": "8",
        "minimum_orbit_intersection": ".251627",
        "jupiter_tisserand_invariant": "3.170",
        "epoch_osculation": "2456982.5",
        "eccentricity": ".5317922143314608",
        "semi_major_axis": "2.64578153623997",
        "inclination": "4.873175791327886",
        "ascending_node_longitude": "57.85235850794376",
        "orbital_period": "1571.916233195352",
        "perihelion_distance": "1.238775514445622",
        "perihelion_argument": "5.491923957746951",
        "aphelion_distance": "4.052787558034318",
        "perihelion_time": "2456987.573414591701",
        "mean_anomaly": "358.8380874155745",
        "mean_motion": ".2290198373155044",
        "equinox": "J2000",
        "orbit_class": {
            "orbit_class_type": "AMO",
            "orbit_class_description": "Near-Earth asteroid orbits similar to that of 1221 Amor",
            "orbit_class_range": "1.017 AU < q (perihelion) < 1.3 AU"
        }
    },
    "is_sentry_object": false
}